ISS (ZARYA)             
1 25544U 98067A   25300.16780669  .00014442  00000+0  26500-3 0  9993
2 25544  51.6344  13.0478 0004676 344.0897  15.9944 15.49510295535631
CSS (TIANHE)            
1 48274U 21035A   25300.15952994  .00033355  00000+0  39100-3 0  9994
2 48274  41.4668 299.6629 0010927 290.7001  69.2667 15.60744801256754
ISS (NAUKA)             
1 49044U 21066A   25299.71634698  .00015600  00000+0  28569-3 0  9991
2 49044  51.6344  15.2829 0004605 341.7148  18.3675 15.49497961230444
FREGAT DEB              
1 49271U 11037PF  25300.08622419  .00000081  00000+0  37791-3 0  9995
2 49271  51.6267 337.3784 0894952 123.1118 245.8879 12.33751980196177
CSS (WENTIAN)           
1 53239U 22085A   25299.90357436  .00035929  00000+0  42098-3 0  9996
2 53239  41.4668 301.2205 0010975 289.1292  70.8358 15.60728815173848
CSS (MENGTIAN)          
1 54216U 22143A   25299.90357436  .00035929  00000+0  42098-3 0  9997
2 54216  41.4668 301.2205 0010975 289.1292  70.8358 15.60728815158645
SOYUZ-MS 27             
1 63520U 25072A   25299.71634698  .00015600  00000+0  28569-3 0  9997
2 63520  51.6344  15.2829 0004605 341.7148  18.3675 15.49497961 20200
SHENZHOU-20 (SZ-20)     
1 63632U 25082A   25299.90357436  .00035929  00000+0  42098-3 0  9994
2 63632  41.4668 301.2205 0010975 289.1292  70.8358 15.60728815255308
PROGRESS-MS 31          
1 64751U 25146A   25299.71634698  .00015600  00000+0  28569-3 0  9996
2 64751  51.6344  15.2829 0004605 341.7148  18.3675 15.49497961  6751
TIANZHOU-9              
1 64786U 25149A   25299.90357436  .00035929  00000+0  42098-3 0  9999
2 64786  41.4668 301.2205 0010975 289.1292  70.8358 15.60728815255309
CREW DRAGON 11          
1 65077U 25166A   25299.71634698  .00015600  00000+0  28569-3 0  9990
2 65077  51.6344  15.2829 0004605 341.7148  18.3675 15.49497961  2142
DRAGON CRS-33           
1 65304U 25186A   25299.71634698  .00015600  00000+0  28569-3 0  9995
2 65304  51.6344  15.2829 0004605 341.7148  18.3675 15.49497961   110
